satname,norad_id,inclination_deg,eccentricity,mean_motion_rev_per_day,perigee_km,apogee_km,l1,l2
STARLINK-1297,45395,53.0511,0.0002475,15.4886565,418.36070527091306,421.7258044970795,1 45395U 20019AM  26041.56755070  .00077179  00000+0  14035-2 0  9991,2 45395  53.0511 261.1125 0002475 142.3206 217.7976 15.48865650325206
STARLINK-1307,45397,53.0553,0.0001054,15.48335339,420.87874363831907,422.31212723570934,1 45397U 20019AP  26041.58336806  .00076275  00000+0  14133-2 0  9992,2 45397  53.0553 260.6397 0001054  90.1827 246.7583 15.48335339  5836
STARLINK-1255,45399,53.0447,0.0006445,15.4663166,422.2023323192543,430.9736228153379,1 45399U 20019AR  26040.81933768  .00109360  00000+0  21355-2 0  9995,2 45399  53.0447 236.3285 0006445 145.7864 214.3559 15.46631660326118
STARLINK-1260,45404,53.1619,0.00013,15.30196513,474.33454387003076,476.1164181150889,1 45404U 20019AW  26041.00426210  .00000354  00000+0  24075-4 0  9990,2 45404  53.1619 257.8335 0001300  77.4575 282.6571 15.30196513325731
STARLINK-1263,45405,53.1595,0.000133,15.29917683,475.1465387610442,476.96975467007087,1 45405U 20019AX  26040.99268207  .00058714  00000+0  19962-2 0  9998,2 45405  53.1595 257.9169 0001330 108.0618 252.0528 15.29917683325733
STARLINK-1265,45406,53.159,0.0001388,15.2996646,474.96112439587887,476.8638085277689,1 45406U 20019AY  26041.20339570  .00112167  00000+0  37696-2 0  9993,2 45406  53.1590 257.0150 0001388  94.0105 266.1054 15.29966460325768
STARLINK-1278,45408,53.048,0.0005477,15.50370572,411.92232675112245,419.364233670065,1 45408U 20019BA  26041.04395490  .00100654  00000+0  17278-2 0  9992,2 45408  53.0480 263.6509 0005477 104.6801 255.4814 15.50370572325663
STARLINK-1296,45412,53.1612,0.0001187,15.30221688,474.3368285213073,475.9637989295861,1 45412U 20019BE  26041.00111418  .00015269  00000+0  52625-3 0  9992,2 45412  53.1612 257.8582 0001187 109.5165 250.5964 15.30221688325734
STARLINK-1298,45413,53.0389,0.000552,15.82731779,319.0202489546318,326.4179941128059,1 45413U 20019BF  26041.58336806  .00146801  00000+0  67336-3 0  9998,2 45413  53.0389 191.7626 0005520 241.8268 198.1452 15.82731779  5973
STARLINK-1309,45414,53.0705,6.24e-05,15.50046505,416.1661697662239,417.0141517158845,1 45414U 20019BG  26041.58336806  .00076969  00000+0  13429-2 0  9999,2 45414  53.0705 254.0393 0000624 125.3054 230.7901 15.50046505  5770
STARLINK-1316,45415,53.1599,0.0001334,15.30186385,474.34147906755607,476.16996424569334,1 45415U 20019BH  26040.85046622 -.00001336  00000+0 -33014-4 0  9995,2 45415  53.1599 258.6121 0001334 118.4204 241.6932 15.30186385325736
STARLINK-1318,45416,53.0342,0.000577,15.9283804,290.4952515289933,298.19529607295954,1 45416U 20019BJ  26041.58336806  .00378564  66302-4  10741-2 0  9993,2 45416  53.0342 177.9063 0005770 298.9180 343.2026 15.92838040  5733
STARLINK-1286,45417,53.0497,0.0002248,15.48773376,418.7849786899815,421.84156193151375,1 45417U 20019BK  26040.87596250  .00032314  00000+0  59768-3 0  9997,2 45417  53.0497 264.1408 0002248  75.9903 284.1354 15.48773376325913
STARLINK-1308,45419,53.0551,0.0002365,15.42692497,436.55460702765413,439.77871866017813,1 45419U 20019BM  26040.97000230  .00017806  00000+0  41030-3 0  9990,2 45419  53.0551 284.5370 0002365 114.8165 245.3086 15.42692497325383
STARLINK-1329,45531,53.0527,0.0006286,15.50762207,410.22956386356964,418.7692663646503,1 45531U 20025A   26041.49009888  .00119879  00000+0  20226-2 0  9994,2 45531  53.0527 212.5248 0006286 160.8325 199.2921 15.50762207321221
STARLINK-1338,45532,53.0517,0.0005181,15.49722247,414.017090455588,421.05876881767836,1 45532U 20025B   26041.58336806  .00130763  00000+0  22855-2 0  9993,2 45532  53.0517 215.2024 0005181 198.3353 107.5202 15.49722247  5842
STARLINK-1350,45535,53.0729,9.7e-05,15.35378905,459.13199476880163,460.45855362999737,1 45535U 20025E   26041.58761015  .00014131  00000+0  41549-3 0  9992,2 45535  53.0729 160.3517 0000970  89.9681 270.1432 15.35378905321999
STARLINK-1362,45538,53.1548,0.0001554,15.29366592,476.6392076504844,478.7700032214534,1 45538U 20025H   26041.58336806  .00006665  00000+0  24302-3 0  9992,2 45538  53.1548 226.8332 0001554 100.9852 118.0829 15.29366592  5832
STARLINK-1368,45540,53.1375,0.0002218,15.25936264,486.45254693626157,489.49835441938376,1 45540U 20025K   26041.58336806  .00079586  00000+0  30410-2 0  9993,2 45540  53.1375 227.1420 0002218 101.4856  77.7644 15.25936264  5834
STARLINK-1371,45542,53.0517,0.0004447,15.43457048,432.8852984582236,438.94571675849147,1 45542U 20025M   26041.51173836  .00047850  00000+0  10550-2 0  9992,2 45542  53.0517 218.8250 0004447 167.7139 192.3975 15.43457048321139
STARLINK-1372,45543,53.1594,0.00013,15.30204737,474.3099916973297,476.0918595579915,1 45543U 20025N   26041.58336806  .00006994  00000+0  24800-3 0  9996,2 45543  53.1594 226.9250 0001300  95.9440 161.6424 15.30204737  5833
STARLINK-1373,45544,53.0511,0.0003719,15.45556235,427.2123248653752,432.2760268839902,1 45544U 20025P   26041.00003471  .00157781  00000+0  31745-2 0  9999,2 45544  53.0511 221.4613 0003719 218.6331 130.3571 15.45556235  5693
STARLINK-1294,45551,53.0323,0.0008593,15.8969584,297.3937352439025,308.87616922100915,1 45551U 20025W   26041.58336806  .00339060  53383-4  11302-2 0  9997,2 45551  53.0323 113.9007 0008593   3.3012  18.9446 15.89695840  5993
STARLINK-1327,45555,53.0509,0.0001792,15.48716287,419.2620273508228,421.69865180532815,1 45555U 20025AA  26041.46412599  .00104739  00000+0  19051-2 0  9997,2 45555  53.0509 197.5182 0001792 281.9666  78.1140 15.48716287321420
STARLINK-1356,45564,53.0521,0.0002649,15.41720049,439.2262430735509,442.8390391494113,1 45564U 20025AK  26041.58336806  .00107476  00000+0  24805-2 0  9990,2 45564  53.0521 202.5915 0002649 275.3380  17.8333 15.41720049  5851
STARLINK-1357,45565,53.0552,8.56e-05,15.50086321,415.8921872392757,417.0554246092497,1 45565U 20025AL  26041.55079507  .00118775  00000+0  20541-2 0  9997,2 45565  53.0552 168.7458 0000856 266.2466  93.8444 15.50086321321848
STARLINK-1361,45567,53.0527,0.0002241,15.425438,437.0770726672654,440.13233629921433,1 45567U 20025AN  26041.58336806  .00095805  00000+0  21555-2 0  9994,2 45567  53.0527 203.0240 0002241 276.5218  57.4410 15.42543800  5707
STARLINK-1363,45568,53.0444,0.0005525,15.69639942,356.20445656467837,363.65001754662353,1 45568U 20025AP  26041.58336806  .00142326  00000+0  11621-2 0  9999,2 45568  53.0444 172.4396 0005525 329.6602  76.5408 15.69639942  5983
STARLINK-1366,45569,53.0447,0.0005144,15.69277399,357.4983792114581,364.4315673215542,1 45569U 20025AQ  26041.58336806  .00134872  00000+0  11192-2 0  9990,2 45569  53.0447 173.0981 0005144 324.6821  52.2681 15.69277399  5987
STARLINK-1376,45570,53.1621,0.0001315,15.29337089,476.89122274862075,478.6943322801062,1 45570U 20025AR  26041.46810165 -.00003466  00000+0 -10788-3 0  9991,2 45570  53.1621 204.0827 0001315  88.6687 271.4464 15.29337089321334
STARLINK-1320,45572,53.051,0.0006975,15.62827786,374.779803011289,384.20669721019385,1 45572U 20025AT  26041.49173186  .00058163  00000+0  63404-3 0  9996,2 45572  53.0510 119.4014 0006975 305.0294  55.0065 15.62827786322548
STARLINK-1321,45573,53.0502,0.000186,15.43855507,433.4758199222888,436.01021128809407,1 45573U 20025AU  26041.54173309  .00105003  00000+0  22570-2 0  9994,2 45573  53.0502 187.9644 0001860 230.6658 129.4183 15.43855507321260
STARLINK-1331,45578,53.0549,0.0001151,15.44150055,433.0925500001031,434.6606755337616,1 45578U 20025AZ  26041.58336806  .00020027  00000+0  43825-3 0  9995,2 45578  53.0549 194.4280 0001151  84.0592 106.6498 15.44150055  5730
STARLINK-1333,45580,53.1598,0.0001261,15.30199426,474.3525753683234,476.0809911924662,1 45580U 20025BB  26041.58772921  .00002001  00000+0  79663-4 0  9992,2 45580  53.1598 203.7031 0001261  32.9806 327.1273 15.30199426321358
STARLINK-1335,45581,53.058,0.0001769,15.06399803,545.9870674482627,548.4372559816784,1 45581U 20025BC  26041.46125021 -.00000213  00000+0  46333-5 0  9996,2 45581  53.0580 198.8556 0001769 101.2476 258.8712 15.06399803321409
STARLINK-1337,45582,53.0543,0.0001074,15.53483697,405.83524296298674,407.29259672056924,1 45582U 20025BD  26041.57408254  .00031494  00000+0  49307-3 0  9997,2 45582  53.0543 192.9709 0001074  70.8741 289.2385 15.53483697321499
STARLINK-1347,45586,53.0467,0.0004238,15.49000687,416.7672518366644,422.52905453250423,1 45586U 20025BH  26041.58336806  .00089380  00000+0  16136-2 0  9995,2 45586  53.0467 159.8340 0004238 285.6102 204.5722 15.49000687  5957
STARLINK-1364,45589,53.0533,0.0003292,15.4486812,429.5237830503929,434.0074229242,1 45589U 20025BL  26041.55541610  .00074963  00000+0  15654-2 0  9991,2 45589  53.0533 192.8261 0003292 303.6870  56.3821 15.44868120321497
STARLINK-1365,45590,53.0534,7.84e-05,15.4254314,438.0722162105021,439.14108161465174,1 45590U 20025BM  26041.47659604  .00017534  00000+0  40622-3 0  9992,2 45590  53.0534 222.8762 0000784 152.3053 207.7994 15.42543140321083
STARLINK-1443,45660,53.0562,0.0001684,15.06404399,546.031849242916,548.3643020964009,1 45660U 20035D   26041.55431959 -.00003090  00000+0 -18858-3 0  9991,2 45660  53.0562 188.4350 0001684  99.4593 260.6587 15.06404399314644
STARLINK-1446,45663,53.0239,0.0002585,15.41647879,439.4826487483124,443.0082694796747,1 45663U 20035G   26041.52921468  .00017970  00000+0  42858-3 0  9997,2 45663  53.0239 128.2711 0002585 165.9889 194.1187 15.41647879315480
STARLINK-1448,45665,53.0525,0.0003601,15.46954811,423.19025605118713,428.09033645994987,1 45665U 20035J   26041.62517224  .00097389  00000+0  18853-2 0  9990,2 45665  53.0525 182.4965 0003601 344.2446  15.8448 15.46954811314721
STARLINK-1451,45668,53.0509,0.0002394,15.08601424,538.8164012873722,542.12903161961,1 45668U 20035M   26041.39881748  .00029387  00000+0  18688-2 0  9991,2 45668  53.0509 189.1313 0002394 178.2108 181.8891 15.08601424314627
